STARLINK-32327          
1 61641U 24191W   26068.26598641 -.00005620  00000+0 -19481-3 0  9998
2 61641  42.9998 156.7153 0001265 212.4591 147.6183 15.27589969 77473
FLOCK 4G-18             
1 62680U 25009BZ  26068.19114186  .00011766  00000+0  44319-3 0  9995
2 62680  97.4054 150.5008 0004100 335.7331  24.3715 15.27241676121267
